GSAT-7                  
1 39234U 13044B   26162.70915645 -.00000060  00000+0  00000+0 0  9992
2 39234   0.0695  97.9123 0003117 188.8563 302.5624  1.00270357 45203
AMOS-4                  
1 39237U 13045A   26162.70733645  .00000024  00000+0  00000+0 0  9993
2 39237   0.0428  92.5171 0002542 326.7483 160.4251  1.00271915 46905
AEHF-3 (USA 246)        
1 39256U 13050A   26162.40739411  .00000043  00000+0  00000+0 0  9995
2 39256   5.2801  67.2368 0087751 188.0602  26.8265  1.00271153 45590
ASTRA 2E                
1 39285U 13056A   26162.67319632  .00000167  00000+0  00000+0 0  9998
2 39285   0.0626 328.4416 0002728 113.4147  89.0114  1.00269628 46367
FM-6                    
1 39360U 13058A   26161.91780745  .00000002  00000+0  00000+0 0  9995
2 39360   0.0114  47.7834 0001681 116.7333 308.7742  1.00268329 46015
RADUGA-1M 3             
1 39375U 13062A   26162.10303021  .00000167  00000+0  00000+0 0  9998
2 39375   5.9417  72.4288 0001469 262.6773 356.4301  1.00273016 46045
SES-8                   
1 39460U 13071A   26161.71520853 -.00000252  00000+0  00000+0 0  9999
2 39460   0.0286 281.2409 0002758 165.9648 164.3394  1.00269561 44364
INMARSAT 5-F1           
1 39476U 13073A   26162.06526282  .00000045  00000+0  00000+0 0  9998
2 39476   0.0185   2.4111 0000510 322.5186  20.6097  1.00272691 45514
TKSAT-1 (TUPAC KATARI)  
1 39481U 13075A   26162.60592061 -.00000178  00000+0  00000+0 0  9992
2 39481   0.0470 146.5772 0002293 283.9080 320.4179  1.00270924 45545
EXPRESS-AM5             
1 39487U 13077A   26162.15191278 -.00000263  00000+0  00000+0 0  9990
2 39487   0.0139 289.7929 0000446  94.1332  70.3130  1.00270327 46307
GSAT-14                 
1 39498U 14001A   26162.70915645 -.00000060  00000+0  00000+0 0  9998
2 39498   0.0178  71.6196 0000949 213.8796 303.8423  1.00270876 45327
THAICOM 6               
1 39500U 14002A   26162.71002310 -.00000104  00000+0  00000+0 0  9999
2 39500   0.0541 126.1207 0004373 340.3198 127.7010  1.00270181 45404
TDRS 12                 
1 39504U 14004A   26162.32993536 -.00000256  00000+0  00000+0 0  9999
2 39504   3.9712  18.9853 0002993 198.5657 119.9867  1.00268804 44214
ABS-2                   
1 39508U 14006A   26162.70932977 -.00000069  00000+0  00000+0 0  9991
2 39508   0.0393  80.9802 0003915 345.0761 164.2822  1.00271063 45221
ATHENA-FIDUS            
1 39509U 14006B   26162.70198475  .00000000  00000+0  00000+0 0  9993
2 39509   0.0182  10.0793 0001187  85.0853  95.3800  1.00272135 45033
TURKSAT 4A              
1 39522U 14007A   26162.63149110  .00000163  00000+0  00000+0 0  9993
2 39522   0.0467 299.3747 0001372  19.6371 210.2885  1.00271326 44917
EXPRESS-AT1             
1 39612U 14010A   26162.76685413  .00000046  00000+0  00000+0 0  9992
2 39612   0.2420  85.8249 0003842  39.1779 112.8905  1.00302339 44768
EXPRESS-AT2             
1 39613U 14010B   26162.70560309  .00000095  00000+0  00000+0 0  9997
2 39613   0.0176 317.3699 0000139 348.1948 264.4959  1.00271046 44442
AMAZONAS 4A             
1 39616U 14011A   26162.53701065 -.00000236  00000+0  00000+0 0  9996
2 39616   0.0630 191.9931 0003762 276.8532 270.3691  1.00271867 44659
ASTRA 5B                
1 39617U 14011B   26162.67348307  .00000154  00000+0  00000+0 0  9996
2 39617   0.0513 326.2495 0001885 102.6809  97.0290  1.00271104 44614
IRNSS-1B                
1 39635U 14017A   26161.77869507  .00000125  00000+0  00000+0 0  9990
2 39635  28.9327 240.5136 0022979 189.5605 164.4642  1.00274335 44722
LUCH-5V                 
1 39727U 14023A   26162.64193955 -.00000253  00000+0  00000+0 0  9996
2 39727   5.1184  69.8082 0002716  38.5192 117.3745  1.00265868 44301
KAZSAT-3                
1 39728U 14023B   26161.92182781  .00000078  00000+0  00000+0 0  9996
2 39728   0.0294  55.3837 0000053  17.9008 216.3374  1.00271093 42397
EUTELSAT 3B             
1 39773U 14030A   26161.98219618  .00000038  00000+0  00000+0 0  9996
2 39773   0.0611   1.5828 0003859  78.4254 176.0326  1.00272785 44003
ASIASAT 8 (AMOS-7)      
1 40107U 14046A   26162.71530979 -.00000316  00000+0  00000+0 0  9994
2 40107   0.0018 352.0147 0001258  96.8034 174.0668  1.00269043102090
ASIASAT 6               
1 40141U 14052A   26162.71816981 -.00000346  00000+0  00000+0 0  9992
2 40141   0.0178  13.2190 0000696  89.5328 175.7593  1.00269529 43020
OPTUS 10                
1 40146U 14054A   26161.65599649 -.00000130  00000+0  00000+0 0  9991
2 40146   0.0630 293.9309 0001969 144.7874 212.4494  1.00271704 42960
MEASAT-3B               
1 40147U 14054B   26162.68913970 -.00000225  00000+0  00000+0 0  9998
2 40147   0.0535  52.6017 0003151  18.7162 168.3031  1.00271560 42850
HIMAWARI-8              
1 40267U 14060A   26162.72232984 -.00000259  00000+0  00000+0 0  9999
2 40267   0.0146 329.5501 0000730 141.7884 189.4217  1.00269580 42706
IRNSS-1C                
1 40269U 14061A   26162.71097646 -.00000148  00000+0  00000+0 0  9992
2 40269   6.5045  89.0335 0022699   1.7820 148.1945  1.00270198 42632
INTELSAT 30 (IS-30)     
1 40271U 14062A   26162.60436060 -.00000135  00000+0  00000+0 0  9997
2 40271   0.0279  49.7090 0001227 329.1224   3.6301  1.00277984  6735
ARSAT 1                 
1 40272U 14062B   26162.60895397 -.00000243  00000+0  00000+0 0  9990
2 40272   0.0181  23.5089 0001770  49.9576 333.9049  1.00272297 42567
