OBJECT_NAME,OBJECT_ID,EPOCH,MEAN_MOTION,ECCENTRICITY,INCLINATION,RA_OF_ASC_NODE,ARG_OF_PERICENTER,MEAN_ANOMALY,EPHEMERIS_TYPE,CLASSIFICATION_TYPE,NORAD_CAT_ID,ELEMENT_SET_NO,REV_AT_EPOCH,BSTAR,MEAN_MOTION_DOT,MEAN_MOTION_DDOT
GSAT-7,2013-044B,2026-06-11T17:01:11.117280,1.00270357,.0003117,0.0695,97.9123,188.8563,302.5624,0,U,39234,999,4520,0,-.6E-6,0
AMOS-4,2013-045A,2026-06-11T16:58:33.869280,1.00271915,.0002542,0.0428,92.5171,326.7483,160.4251,0,U,39237,999,4690,0,.24E-6,0
AEHF-3 (USA 246),2013-050A,2026-06-11T09:46:38.851104,1.00271153,.0087751,5.2801,67.2368,188.0602,26.8265,0,U,39256,999,4559,0,.43E-6,0
ASTRA 2E,2013-056A,2026-06-11T16:09:24.162048,1.00269628,.0002728,0.0626,328.4416,113.4147,89.0114,0,U,39285,999,4636,0,.167E-5,0
FM-6,2013-058A,2026-06-10T22:01:38.563680,1.00268329,.00016818,0.0114,47.7834,116.7333,308.7742,0,U,39360,999,4601,0,.2E-7,0
RADUGA-1M 3,2013-062A,2026-06-11T02:28:21.810144,1.00273016,.0001469,5.9417,72.4288,262.6773,356.4301,0,U,39375,999,4604,0,.167E-5,0
SES-8,2013-071A,2026-06-10T17:09:54.016992,1.00269561,.00027587,0.0286,281.2409,165.9648,164.3394,0,U,39460,999,4436,0,-.252E-5,0
INMARSAT 5-F1,2013-073A,2026-06-11T01:33:58.707648,1.00272691,.00005103,0.0185,2.4111,322.5186,20.6097,0,U,39476,999,4551,0,.45E-6,0
TKSAT-1 (TUPAC KATARI),2013-075A,2026-06-11T14:32:31.540704,1.00270924,.0002293,0.0470,146.5772,283.9080,320.4179,0,U,39481,999,4554,0,-.178E-5,0
EXPRESS-AM5,2013-077A,2026-06-11T03:38:45.264192,1.00270327,.00004467,0.0139,289.7929,94.1332,70.3130,0,U,39487,999,4630,0,-.263E-5,0
GSAT-14,2014-001A,2026-06-11T17:01:11.117280,1.00270876,.0000949,0.0178,71.6196,213.8796,303.8423,0,U,39498,999,4532,0,-.6E-6,0
THAICOM 6,2014-002A,2026-06-11T17:02:25.995840,1.00270181,.0004373,0.0541,126.1207,340.3198,127.7010,0,U,39500,999,4540,0,-.104E-5,0
TDRS 12,2014-004A,2026-06-11T07:55:06.415104,1.00268804,.0002993,3.9712,18.9853,198.5657,119.9867,0,U,39504,999,4421,0,-.256E-5,0
ABS-2,2014-006A,2026-06-11T17:01:26.092128,1.00271063,.0003915,0.0393,80.9802,345.0761,164.2822,0,U,39508,999,4522,0,-.69E-6,0
ATHENA-FIDUS,2014-006B,2026-06-11T16:50:51.482400,1.00272135,.0001187,0.0182,10.0793,85.0853,95.3800,0,U,39509,999,4503,0,0,0
TURKSAT 4A,2014-007A,2026-06-11T15:09:20.831040,1.00271326,.0001372,0.0467,299.3747,19.6371,210.2885,0,U,39522,999,4491,0,.163E-5,0
EXPRESS-AT1,2014-010A,2026-06-11T18:24:16.196832,1.00302339,.0003842,0.2420,85.8249,39.1779,112.8905,0,U,39612,999,4476,0,.46E-6,0
EXPRESS-AT2,2014-010B,2026-06-11T16:56:04.106976,1.00271046,.0000139,0.0176,317.3699,348.1948,264.4959,0,U,39613,999,4444,0,.95E-6,0
AMAZONAS 4A,2014-011A,2026-06-11T12:53:17.720160,1.00271867,.0003762,0.0630,191.9931,276.8532,270.3691,0,U,39616,999,4465,0,-.236E-5,0
ASTRA 5B,2014-011B,2026-06-11T16:09:48.937248,1.00271104,.0001885,0.0513,326.2495,102.6809,97.0290,0,U,39617,999,4461,0,.154E-5,0
IRNSS-1B,2014-017A,2026-06-10T18:41:19.254048,1.00274335,.00229797,28.9327,240.5136,189.5605,164.4642,0,U,39635,999,4472,0,.125E-5,0
LUCH-5V,2014-023A,2026-06-11T15:24:23.577120,1.00265868,.0002716,5.1184,69.8082,38.5192,117.3745,0,U,39727,999,4430,0,-.253E-5,0
KAZSAT-3,2014-023B,2026-06-10T22:07:25.922784,1.00271093,.00000535,0.0294,55.3837,17.9008,216.3374,0,U,39728,999,4239,0,.78E-6,0
EUTELSAT 3B,2014-030A,2026-06-10T23:34:21.749952,1.00272785,.00038596,0.0611,1.5828,78.4254,176.0326,0,U,39773,999,4400,0,.38E-6,0
ASIASAT 8 (AMOS-7),2014-046A,2026-06-11T17:10:02.765856,1.00269043,.0001258,0.0018,352.0147,96.8034,174.0668,0,U,40107,999,10209,0,-.316E-5,0
ASIASAT 6,2014-052A,2026-06-11T17:14:09.871584,1.00269529,.0000696,0.0178,13.2190,89.5328,175.7593,0,U,40141,999,4302,0,-.346E-5,0
OPTUS 10,2014-054A,2026-06-10T15:44:38.096736,1.00271704,.00019691,0.0630,293.9309,144.7874,212.4494,0,U,40146,999,4296,0,-.13E-5,0
MEASAT-3B,2014-054B,2026-06-11T16:32:21.670080,1.00271560,.0003151,0.0535,52.6017,18.7162,168.3031,0,U,40147,999,4285,0,-.225E-5,0
HIMAWARI-8,2014-060A,2026-06-11T17:20:09.298176,1.00269580,.000073,0.0146,329.5501,141.7884,189.4217,0,U,40267,999,4270,0,-.259E-5,0
IRNSS-1C,2014-061A,2026-06-11T17:03:48.366144,1.00270198,.0022699,6.5045,89.0335,1.7820,148.1945,0,U,40269,999,4263,0,-.148E-5,0
INTELSAT 30 (IS-30),2014-062A,2026-06-11T14:30:16.755840,1.00277984,.0001227,0.0279,49.7090,329.1224,3.6301,0,U,40271,999,673,0,-.135E-5,0
ARSAT 1,2014-062B,2026-06-11T14:36:53.623008,1.00272297,.000177,0.0181,23.5089,49.9576,333.9049,0,U,40272,999,4256,0,-.243E-5,0
